COSMOS 2433 (720)       
1 32275U 07052A   24110.09238315 -.00000059  00000+0  00000+0 0  9995
2 32275  65.9544 342.3546 0001108 291.9551  68.0880  2.13104159128246
COSMOS 2432 (719)       
1 32276U 07052B   24110.39588171 -.00000058  00000+0  00000+0 0  9996
2 32276  65.9688 342.4574 0010394 337.6206 201.6844  2.13103400128276
COSMOS 2434 (721)       
1 32393U 07065A   24110.23675108 -.00000035  00000+0  00000+0 0  9995
2 32393  64.3220 218.5714 0002631  80.1706 282.6615  2.13103219126967
COSMOS 2436 (723)       
1 32395U 07065C   24109.07247476 -.00000038  00000+0  00000+0 0  9993
2 32395  64.3307 218.6748 0016233   2.1825 322.7010  2.13102969126889
COSMOS 2456 (730)       
1 36111U 09070A   24108.39054127  .00000062  00000+0  00000+0 0  9990
2 36111  64.5871  98.0421 0006375 305.4094 236.7407  2.13099152111571
COSMOS 2457 (733)       
1 36112U 09070B   24110.60367382  .00000062  00000+0  00000+0 0  9998
2 36112  64.5726  97.8264 0002978 201.5919  10.9608  2.13101320111622
COSMOS 2460 (732)       
1 36402U 10007C   24110.58981160 -.00000055  00000+0  00000+0 0  9998
2 36402  65.8118 341.0143 0002431  40.1916 152.8969  2.13106375109922
COSMOS 2476 (744)       
1 37867U 11064A   24110.38141737  .00000067  00000+0  00000+0 0  9996
2 37867  64.8628  99.5870 0024276 241.9334 298.8459  2.13101752 96958
COSMOS 2477 (745)       
1 37868U 11064B   24108.22813406  .00000064  00000+0  00000+0 0  9993
2 37868  64.8690  99.7321 0021516 243.4793 263.1185  2.13101585 96901
COSMOS 2475 (743)       
1 37869U 11064C   24109.69139691  .00000068  00000+0  00000+0 0  9997
2 37869  64.8767  99.6966 0026772 256.7911 251.0495  2.13101910 96945
COSMOS 2485 (747)       
1 39155U 13019A   24109.14912113  .00000069  00000+0  00000+0 0  9998
2 39155  65.0204 100.2005 0024485 238.0830 121.6906  2.13101886 85443
COSMOS 2492 (754)       
1 39620U 14012A   24110.04317007 -.00000057  00000+0  00000+0 0  9999
2 39620  65.6941 340.6182 0013114 331.0969  28.8854  2.13103296 78421
COSMOS 2500 (755)       
1 40001U 14032A   24109.75409607 -.00000058  00000+0  00000+0 0  9991
2 40001  65.6317 340.4377 0004425 193.1689 166.8733  2.13106245 76635
COSMOS 2501 (702K)      
1 40315U 14075A   24110.47580757 -.00000034  00000+0  00000+0 0  9997
2 40315  63.6238 217.7169 0019604 207.0834 152.8139  2.13101509 73045
COSMOS 2514 (751)       
1 41330U 16008A   24109.98876583 -.00000057  00000+0  00000+0 0  9997
2 41330  65.4269 339.9541 0008163 207.8091 152.2014  2.13102793 63804
COSMOS 2522 (752)       
1 42939U 17055A   24110.29862045 -.00000035  00000+0  00000+0 0  9996
2 42939  64.0848 218.7797 0007702 235.0350 124.8902  2.13101878 51164
COSMOS 2527 (756)       
1 43508U 18053A   24110.25756414  .00000069  00000+0  00000+0 0  9992
2 43508  65.1814 100.3028 0009736 245.7139 114.1957  2.13102433 45463
COSMOS 2529 (757)       
1 43687U 18086A   24110.35667345 -.00000035  00000+0  00000+0 0  9995
2 43687  64.3003 219.2746 0008940 259.6086 100.2874  2.13102118 42472
COSMOS 2534 (758)       
1 44299U 19030A   24108.77165516 -.00000038  00000+0  00000+0 0  9994
2 44299  64.3735 219.2759 0010997 283.6231  74.5038  2.13102271 38078
COSMOS 2544 (759)       
1 44850U 19088A   24110.20153352  .00000069  00000+0  00000+0 0  9999
2 44850  65.1678 100.1431 0015349 262.4129  97.4238  2.13102223 33908
COSMOS 2545 (760)       
1 45358U 20018A   24110.39860171 -.00000056  00000+0  00000+0 0  9999
2 45358  64.7667 339.9990 0007159 252.6917 107.2846  2.13102703 31853
COSMOS 2547 (705K)      
1 46805U 20075A   24110.58618207 -.00000033  00000+0  00000+0 0  9997
2 46805  64.6018 218.8387 0007078 237.4484 122.4810  2.13103185 27103
COSMOS 2557 (706K)      
1 52984U 22075A   24108.40440137 -.00000070  00000+0  00000+0 0  9998
2 52984  64.6921 342.2046 0011398 287.5083  72.4171  2.13101982 13861
COSMOS 2559 (707K)      
1 54031U 22130A   24110.22415413 -.00000061  00000+0  00000+0 0  9997
2 54031  64.6629 342.2607 0004823 225.2098 134.8050  2.13101380 11874
COSMOS 2564 (761)       
1 54377U 22161A   24110.41555448 -.00000034  00000+0  00000+0 0  9998
2 54377  64.7429 218.9385 0009300 215.9507 143.9841  2.13102129 10829
COSMOS 2569 (703K)      
1 57517U 23114A   24110.43321859  .00000066  00000+0  00000+0 0  9999
2 57517  64.8939  99.3060 0012933 295.2022  64.6732  2.13104070  5453
